NORAD_CAT_ID,OBJECT_NAME,OBJECT_TYPE,EPOCH,MEAN_MOTION,ECCENTRICITY,INCLINATION,RA_OF_ASC_NODE,ARG_OF_PERICENTER,MEAN_ANOMALY,BSTAR,MEAN_MOTION_DOT,MEAN_MOTION_DDOT,TLE_LINE0,TLE_LINE1,TLE_LINE2,SEMIMAJOR_AXIS,PERIOD,APOGEE,PERIGEE,DECAYED
55395.0,STARLINK-5274,PAYLOAD,2023-03-24 16:09:46,15.69926619,0.0003681,69.9966,303.52,265.6783,94.3992,-1.2137e-05,-1.672e-05,0.0,0 STARLINK-5274,1 55395U 23014E   23083.67345634 -.00001672  00000-0 -12137-4 0  9997,2 55395  69.9966 303.5200 0003681 265.6783  94.3992 15.69926619  8369,6737.244,91.724,361.589,356.629,0.0
55395.0,STARLINK-5274,PAYLOAD,2023-03-24 20:45:02,15.69902482,0.0003829,69.9977,302.9839,270.0862,89.9895,-6.3716e-05,-7.861e-05,0.0,0 STARLINK-5274,1 55395U 23014E   23083.86461491 -.00007861  00000-0 -63716-4 0  9993,2 55395  69.9977 302.9839 0003829 270.0862  89.9895 15.69902482  8391,6737.313,91.725,361.758,356.598,0.0
55395.0,STARLINK-5274,PAYLOAD,2023-03-24 22:16:47,15.69902452,0.000357,69.9978,302.8043,268.6428,91.4358,-6.0625e-05,-7.49e-05,0.0,0 STARLINK-5274,1 55395U 23014E   23083.92833244 -.00007490  00000-0 -60625-4 0  9993,2 55395  69.9978 302.8043 0003570 268.6428  91.4358 15.69902452  9347,6737.313,91.725,361.583,356.773,0.0
55395.0,STARLINK-5274,PAYLOAD,2023-03-25 21:13:04,15.69938237,0.0003771,69.9989,300.1192,260.1031,99.9739,5.3112e-05,6.182e-05,0.0,0 STARLINK-5274,1 55395U 23014E   23084.88408420  .00006182  00000-0  53112-4 0  9991,2 55395  69.9989 300.1192 0003771 260.1031  99.9739 15.69938237  8553,6737.211,91.723,361.616,356.535,0.0
55395.0,STARLINK-5274,PAYLOAD,2023-03-26 01:48:19,15.69950079,0.0003058,70.0004,299.5793,266.2135,93.8711,9.2624e-05,0.0001095,0.0,0 STARLINK-5274,1 55395U 23014E   23085.07522846  .00010950  00000-0  92624-4 0  9991,2 55395  70.0004 299.5793 0003058 266.2135  93.8711 15.69950079  8586,6737.177,91.723,361.102,356.982,0.0
55395.0,STARLINK-5274,PAYLOAD,2023-03-26 20:09:21,15.69929915,0.0003104,69.9988,297.4294,266.8858,93.1982,6.3142e-05,7.388e-05,0.0,0 STARLINK-5274,1 55395U 23014E   23085.83983634  .00007388  00000-0  63142-4 0  9995,2 55395  69.9988 297.4294 0003104 266.8858  93.1982 15.69929915  8709,6737.235,91.724,361.191,357.008,0.0
55395.0,STARLINK-5274,PAYLOAD,2023-03-26 21:41:06,15.6993108,0.0003114,69.9989,297.2505,266.2815,93.8025,5.9673e-05,6.97e-05,0.0,0 STARLINK-5274,1 55395U 23014E   23085.90355220  .00006970  00000-0  59673-4 0  9997,2 55395  69.9989 297.2505 0003114 266.2815  93.8025 15.69931080  9657,6737.231,91.724,361.194,356.998,0.0
55395.0,STARLINK-5274,PAYLOAD,2023-03-27 14:30:23,15.69931964,0.0003016,69.9984,295.2795,260.0879,99.9976,-1.5288e-05,-2.051e-05,0.0,0 STARLINK-5274,1 55395U 23014E   23086.60443398 -.00002051  00000-0 -15288-4 0  9991,2 55395  69.9984 295.2795 0003016 260.0879  99.9976 15.69931964  9769,6737.229,91.724,361.126,357.062,0.0
55395.0,STARLINK-5274,PAYLOAD,2023-03-27 20:37:23,15.69942371,0.0002889,69.9986,294.5657,246.5948,113.4944,8.5181e-06,8.12e-06,0.0,0 STARLINK-5274,1 55395U 23014E   23086.85929578  .00000812  00000-0  85181-5 0  9998,2 55395  69.9986 294.5657 0002889 246.5948 113.4944 15.69942371  8864,6737.199,91.723,361.01,357.117,0.0
55395.0,STARLINK-5274,PAYLOAD,2023-03-27 22:09:07,15.69942289,0.0002868,70.0005,294.3872,248.2872,111.8019,3.0491e-06,1.54e-06,0.0,0 STARLINK-5274,1 55395U 23014E   23086.92300922  .00000154  00000-0  30491-5 0  9995,2 55395  70.0005 294.3872 0002868 248.2872 111.8019 15.69942289  9817,6737.199,91.723,360.996,357.132,0.0
55395.0,STARLINK-5274,PAYLOAD,2023-03-28 01:12:38,15.69925567,0.0003005,69.9985,294.0254,263.72,96.3653,-2.9186e-05,-3.72e-05,0.0,0 STARLINK-5274,1 55395U 23014E   23087.05045112 -.00003720  00000-0 -29186-4 0  9999,2 55395  69.9985 294.0254 0003005 263.7200  96.3653 15.69925567  8891,6737.247,91.724,361.136,357.087,0.0
55395.0,STARLINK-5274,PAYLOAD,2023-03-28 21:05:25,15.6993154,0.000307,69.9985,291.695,267.8023,92.2821,1.4478e-05,1.529e-05,0.0,0 STARLINK-5274,1 55395U 23014E   23087.87876388  .00001529  00000-0  14478-4 0  9997,2 55395  69.9985 291.6950 0003070 267.8023  92.2821 15.69931540  9966,6737.23,91.724,361.163,357.027,0.0
55395.0,STARLINK-5274,PAYLOAD,2023-03-28 22:37:10,15.69932241,0.0003061,69.9985,291.5158,267.8181,92.2665,1.6637e-05,1.789e-05,0.0,0 STARLINK-5274,1 55395U 23014E   23087.94248016  .00001789  00000-0  16637-4 0  9993,2 55395  69.9985 291.5158 0003061 267.8181  92.2665 15.69932241  9033,6737.228,91.724,361.155,357.031,0.0
55395.0,STARLINK-5274,PAYLOAD,2023-03-29 20:01:42,15.69930646,0.0002992,69.9999,289.0111,252.6497,107.4372,1.715e-05,1.85e-05,0.0,0 STARLINK-5274,1 55395U 23014E   23088.83451486  .00001850  00000-0  17150-4 0  9999,2 55395  69.9999 289.0111 0002992 252.6497 107.4372 15.69930646 10115,6737.232,91.724,361.113,357.082,0.0
55395.0,STARLINK-5274,PAYLOAD,2023-03-30 00:36:57,15.69935732,0.0003418,69.999,288.4713,265.1737,94.9068,2.7682e-05,3.119e-05,0.0,0 STARLINK-5274,1 55395U 23014E   23089.02566319  .00003119  00000-0  27682-4 0  9994,2 55395  69.9990 288.4713 0003418 265.1737  94.9068 15.69935732  9208,6737.218,91.723,361.386,356.78,0.0
55395.0,STARLINK-5274,PAYLOAD,2023-03-30 06:43:58,15.69921448,0.0002954,69.9986,287.7534,268.9466,91.1391,1.1718e-05,1.196e-05,0.0,0 STARLINK-5274,1 55395U 23014E   23089.28053737  .00001196  00000-0  11718-4 0  9993,2 55395  69.9986 287.7534 0002954 268.9466  91.1391 15.69921448  9241,6737.259,91.724,361.114,357.134,0.0
55395.0,STARLINK-5274,PAYLOAD,2023-03-30 15:54:27,15.6994682,0.0003176,69.9995,286.6815,267.3806,92.7026,4.8585e-05,5.638e-05,0.0,0 STARLINK-5274,1 55395U 23014E   23089.66282318  .00005638  00000-0  48585-4 0  9991,2 55395  69.9995 286.6815 0003176 267.3806  92.7026 15.69946820  9309,6737.186,91.723,361.191,356.911,0.0
55395.0,STARLINK-5274,PAYLOAD,2023-03-30 22:01:29,15.69915507,0.000286,70.0006,285.9651,264.6168,95.4702,-5.5479e-06,-8.79e-06,0.0,0 STARLINK-5274,1 55395U 23014E   23089.91770396 -.00000879  00000-0 -55479-5 0  9992,2 55395  70.0006 285.9651 0002860 264.6168  95.4702 15.69915507  9348,6737.276,91.725,361.068,357.214,0.0
55395.0,STARLINK-5274,PAYLOAD,2023-03-31 17:54:52,15.6918014,0.0001225,70.0035,283.6407,220.4422,139.6682,-0.0013769,-0.00157722,0.0,0 STARLINK-5274,1 55395U 23014E   23090.74643970 -.00157722  00000-0 -13769-2 0  9995,2 55395  70.0035 283.6407 0001225 220.4422 139.6682 15.69180140  9470,6739.38,91.768,362.071,360.42,0.0
55395.0,STARLINK-5274,PAYLOAD,2023-04-01 06:09:03,15.6941098,0.0001644,70.0038,282.2066,224.6414,135.4649,-0.00053472,-0.00062672,0.0,0 STARLINK-5274,1 55395U 23014E   23091.25628712 -.00062672  00000-0 -53472-3 0  9994,2 55395  70.0038 282.2066 0001644 224.6414 135.4649 15.69410980  9555,6738.72,91.754,361.692,359.477,0.0
55395.0,STARLINK-5274,PAYLOAD,2023-04-01 15:19:49,15.68747515,0.0001805,69.9988,281.1295,67.1804,292.9581,-0.0021762,-0.00242343,0.0,0 STARLINK-5274,1 55395U 23014E   23091.63876292 -.00242343  00000-0 -21762-2 0  9995,2 55395  69.9988 281.1295 0001805  67.1804 292.9581 15.68747515  9617,6740.619,91.793,363.701,361.268,0.0
55395.0,STARLINK-5274,PAYLOAD,2023-04-02 14:17:15,15.68506305,0.0002203,69.999,278.4443,66.2855,293.8571,-0.001655,-0.00183826,0.0,0 STARLINK-5274,1 55395U 23014E   23092.59531311 -.00183826  00000-0 -16550-2 0  9990,2 55395  69.9990 278.4443 0002203  66.2855 293.8571 15.68506305 10704,6741.31,91.807,364.661,361.69,0.0
55395.0,STARLINK-5274,PAYLOAD,2023-04-03 06:00:00,15.6989645,0.0003678,69.9992,276.5931,280.7714,186.8314,0.0006788,0.0008212,0.0,0 STARLINK-5274,1 55395U 23014E   23093.25001157  .00082120  00000-0  67880-3 0  9990,2 55395  69.9992 276.5931 0003678 280.7714 186.8314 15.69896450  9866,6737.33,91.726,361.673,356.717,0.0
55395.0,STARLINK-5274,PAYLOAD,2023-04-03 11:39:36,15.69943796,0.0003482,69.9977,275.9314,269.2822,90.7975,0.00011072,0.00013132,0.0,0 STARLINK-5274,1 55395U 23014E   23093.48583612  .00013132  00000-0  11072-3 0  9995,2 55395  69.9977 275.9314 0003482 269.2822  90.7975 15.69943796 10844,6737.195,91.723,361.406,356.714,0.0
55395.0,STARLINK-5274,PAYLOAD,2023-04-03 14:43:09,15.69883569,0.0003548,69.9979,275.5733,276.838,83.2412,8.9181e-05,0.00010506,0.0,0 STARLINK-5274,1 55395U 23014E   23093.61329939  .00010506  00000-0  89181-4 0  9999,2 55395  69.9979 275.5733 0003548 276.8380  83.2412 15.69883569  9924,6737.367,91.727,361.623,356.842,0.0
55395.0,STARLINK-5274,PAYLOAD,2023-04-04 06:00:00,15.69881324,0.000379,69.9997,273.7813,282.6781,74.9903,0.00051051,0.00061519,0.0,0 STARLINK-5274,1 55395U 23014E   23094.25001157  .00061519  00000-0  51051-3 0  9993,2 55395  69.9997 273.7813 0003790 282.6781  74.9903 15.69881324 10024,6737.374,91.727,361.792,356.685,0.0
55395.0,STARLINK-5274,PAYLOAD,2023-04-04 16:00:00,15.69952536,0.0003837,70.0001,272.6098,280.4384,271.3666,-0.000452,-0.00054282,0.0,0 STARLINK-5274,1 55395U 23014E   23094.66667824 -.00054282  00000-0 -45200-3 0  9997,2 55395  70.0001 272.6098 0003837 280.4384 271.3666 15.69952536  1307,6737.17,91.723,361.62,356.45,0.0
55395.0,STARLINK-5274,PAYLOAD,2023-04-04 22:00:00,15.69882749,0.000385,69.9999,271.9067,282.2215,242.1061,0.00056819,0.00068556,0.0,0 STARLINK-5274,1 55395U 23014E   23094.91667824  .00068556  00000-0  56819-3 0  9990,2 55395  69.9999 271.9067 0003850 282.2215 242.1061 15.69882749 10129,6737.369,91.727,361.828,356.641,0.0
55395.0,STARLINK-5274,PAYLOAD,2023-04-05 14:00:01,15.69955636,0.0003775,69.9997,270.0323,272.9447,58.0339,-0.00028331,-0.00034188,0.0,0 STARLINK-5274,1 55395U 23014E   23095.58334491 -.00034188  00000-0 -28331-3 0  9999,2 55395  69.9997 270.0323 0003775 272.9447  58.0339 15.69955636 10231,6737.161,91.722,361.569,356.483,0.0
55395.0,STARLINK-5274,PAYLOAD,2023-04-05 22:00:00,15.69907038,0.0003738,69.9994,269.0949,277.5809,136.7604,0.00019154,0.00022866,0.0,0 STARLINK-5274,1 55395U 23014E   23095.91667824  .00022866  00000-0  19154-3 0  9996,2 55395  69.9994 269.0949 0003738 277.5809 136.7604 15.69907038  1302,6737.3,91.725,361.683,356.647,0.0
